[{"OBJECT_NAME":"ONEWEB-0680","OBJECT_ID":"2023-068G","EPOCH":"2026-01-18T16:07:38.745408","MEAN_MOTION":13.21825641,"ECCENTRICITY":0.00019149,"INCLINATION":87.922,"RA_OF_ASC_NODE":273.7872,"ARG_OF_PERICENTER":93.8587,"MEAN_ANOMALY":266.2766,"EPHEMERIS_TYPE":0,"CLASSIFICATION_TYPE":"U","NORAD_CAT_ID":56716,"ELEMENT_SET_NO":999,"REV_AT_EPOCH":13134,"BSTAR":2.5106067e-5,"MEAN_MOTION_DOT":2.3e-7,"MEAN_MOTION_DDOT":0},{"OBJECT_NAME":"ONEWEB-0681","OBJECT_ID":"2023-068H","EPOCH":"2026-01-18T15:38:00.902112","MEAN_MOTION":13.21824519,"ECCENTRICITY":0.00024463,"INCLINATION":87.9212,"RA_OF_ASC_NODE":273.8039,"ARG_OF_PERICENTER":61.427,"MEAN_ANOMALY":298.711,"EPHEMERIS_TYPE":0,"CLASSIFICATION_TYPE":"U","NORAD_CAT_ID":56717,"ELEMENT_SET_NO":999,"REV_AT_EPOCH":13133,"BSTAR":0.00023041943,"MEAN_MOTION_DOT":1.08e-6,"MEAN_MOTION_DDOT":0},{"OBJECT_NAME":"ONEWEB-0682","OBJECT_ID":"2023-068J","EPOCH":"2026-01-18T12:07:38.067744","MEAN_MOTION":13.15550974,"ECCENTRICITY":0.00018974,"INCLINATION":87.9004,"RA_OF_ASC_NODE":289.0742,"ARG_OF_PERICENTER":88.7938,"MEAN_ANOMALY":271.3409,"EPHEMERIS_TYPE":0,"CLASSIFICATION_TYPE":"U","NORAD_CAT_ID":56718,"ELEMENT_SET_NO":999,"REV_AT_EPOCH":12977,"BSTAR":0.00037744266,"MEAN_MOTION_DOT":1.55e-6,"MEAN_MOTION_DDOT":0},{"OBJECT_NAME":"ONEWEB-0683","OBJECT_ID":"2023-068K","EPOCH":"2026-01-18T10:48:56.015712","MEAN_MOTION":13.15549485,"ECCENTRICITY":0.0001667,"INCLINATION":87.9016,"RA_OF_ASC_NODE":289.0729,"ARG_OF_PERICENTER":83.4863,"MEAN_ANOMALY":276.6458,"EPHEMERIS_TYPE":0,"CLASSIFICATION_TYPE":"U","NORAD_CAT_ID":56719,"ELEMENT_SET_NO":999,"REV_AT_EPOCH":12973,"BSTAR":-1.0665353e-5,"MEAN_MOTION_DOT":9.0e-8,"MEAN_MOTION_DDOT":0},{"OBJECT_NAME":"ONEWEB-0684","OBJECT_ID":"2023-068L","EPOCH":"2026-01-18T11:00:18.918720","MEAN_MOTION":13.15546965,"ECCENTRICITY":6.056e-5,"INCLINATION":87.9012,"RA_OF_ASC_NODE":289.0649,"ARG_OF_PERICENTER":16.9388,"MEAN_ANOMALY":343.1763,"EPHEMERIS_TYPE":0,"CLASSIFICATION_TYPE":"U","NORAD_CAT_ID":56720,"ELEMENT_SET_NO":999,"REV_AT_EPOCH":12956,"BSTAR":-8.3821028e-5,"MEAN_MOTION_DOT":-1.9e-7,"MEAN_MOTION_DDOT":0},{"OBJECT_NAME":"ONEWEB-0686","OBJECT_ID":"2023-068M","EPOCH":"2026-01-18T15:29:58.723584","MEAN_MOTION":13.17180206,"ECCENTRICITY":0.00012656,"INCLINATION":87.9019,"RA_OF_ASC_NODE":258.5821,"ARG_OF_PERICENTER":93.7904,"MEAN_ANOMALY":266.3372,"EPHEMERIS_TYPE":0,"CLASSIFICATION_TYPE":"U","NORAD_CAT_ID":56721,"ELEMENT_SET_NO":999,"REV_AT_EPOCH":13203,"BSTAR":0.0001208606,"MEAN_MOTION_DOT":5.9e-7,"MEAN_MOTION_DDOT":0},{"OBJECT_NAME":"ONEWEB-0694","OBJECT_ID":"2023-068N","EPOCH":"2026-01-18T15:33:41.997600","MEAN_MOTION":13.16593093,"ECCENTRICITY":0.00016717,"INCLINATION":87.9037,"RA_OF_ASC_NODE":258.5162,"ARG_OF_PERICENTER":94.868,"MEAN_ANOMALY":265.2642,"EPHEMERIS_TYPE":0,"CLASSIFICATION_TYPE":"U","NORAD_CAT_ID":56722,"ELEMENT_SET_NO":999,"REV_AT_EPOCH":13209,"BSTAR":0.00018821417,"MEAN_MOTION_DOT":8.5e-7,"MEAN_MOTION_DDOT":0},{"OBJECT_NAME":"ONEWEB-0696","OBJECT_ID":"2023-068P","EPOCH":"2026-01-18T11:48:15.109056","MEAN_MOTION":13.15549266,"ECCENTRICITY":0.00014294,"INCLINATION":87.9002,"RA_OF_ASC_NODE":289.1081,"ARG_OF_PERICENTER":63.7714,"MEAN_ANOMALY":296.3564,"EPHEMERIS_TYPE":0,"CLASSIFICATION_TYPE":"U","NORAD_CAT_ID":56723,"ELEMENT_SET_NO":999,"REV_AT_EPOCH":12968,"BSTAR":0.0001972308,"MEAN_MOTION_DOT":8.7e-7,"MEAN_MOTION_DDOT":0},{"OBJECT_NAME":"ONEWEB-0703","OBJECT_ID":"2023-068Q","EPOCH":"2026-01-18T12:01:57.250848","MEAN_MOTION":13.1554891,"ECCENTRICITY":0.00017648,"INCLINATION":87.9002,"RA_OF_ASC_NODE":289.0876,"ARG_OF_PERICENTER":39.834,"MEAN_ANOMALY":320.292,"EPHEMERIS_TYPE":0,"CLASSIFICATION_TYPE":"U","NORAD_CAT_ID":56724,"ELEMENT_SET_NO":999,"REV_AT_EPOCH":12957,"BSTAR":0.0004176259,"MEAN_MOTION_DOT":1.7e-6,"MEAN_MOTION_DDOT":0},{"OBJECT_NAME":"ONEWEB-0721","OBJECT_ID":"2023-068R","EPOCH":"2026-01-18T13:27:58.702176","MEAN_MOTION":13.22456568,"ECCENTRICITY":0.00015785,"INCLINATION":86.6822,"RA_OF_ASC_NODE":133.2654,"ARG_OF_PERICENTER":107.0739,"MEAN_ANOMALY":253.0567,"EPHEMERIS_TYPE":0,"CLASSIFICATION_TYPE":"U","NORAD_CAT_ID":56725,"ELEMENT_SET_NO":999,"REV_AT_EPOCH":13816,"BSTAR":0.0001801492,"MEAN_MOTION_DOT":9.0e-7,"MEAN_MOTION_DDOT":0},{"OBJECT_NAME":"ONEWEB-0015","OBJECT_ID":"2024-188A","EPOCH":"2026-01-18T11:06:09.516096","MEAN_MOTION":13.11414853,"ECCENTRICITY":0.00023804,"INCLINATION":87.8815,"RA_OF_ASC_NODE":50.9021,"ARG_OF_PERICENTER":90.7389,"MEAN_ANOMALY":269.4012,"EPHEMERIS_TYPE":0,"CLASSIFICATION_TYPE":"U","NORAD_CAT_ID":61594,"ELEMENT_SET_NO":999,"REV_AT_EPOCH":6483,"BSTAR":0.001335636,"MEAN_MOTION_DOT":4.86e-6,"MEAN_MOTION_DDOT":0},{"OBJECT_NAME":"ONEWEB-0687","OBJECT_ID":"2024-188B","EPOCH":"2026-01-18T13:27:15.035616","MEAN_MOTION":13.17649922,"ECCENTRICITY":0.00022936,"INCLINATION":87.9072,"RA_OF_ASC_NODE":35.6296,"ARG_OF_PERICENTER":100.6105,"MEAN_ANOMALY":259.5285,"EPHEMERIS_TYPE":0,"CLASSIFICATION_TYPE":"U","NORAD_CAT_ID":61595,"ELEMENT_SET_NO":999,"REV_AT_EPOCH":6619,"BSTAR":0.00010361316,"MEAN_MOTION_DOT":5.3e-7,"MEAN_MOTION_DDOT":0},{"OBJECT_NAME":"ONEWEB-0688","OBJECT_ID":"2024-188C","EPOCH":"2026-01-18T14:08:33.097344","MEAN_MOTION":13.17650812,"ECCENTRICITY":0.0003077,"INCLINATION":87.9071,"RA_OF_ASC_NODE":35.6235,"ARG_OF_PERICENTER":84.5505,"MEAN_ANOMALY":275.5978,"EPHEMERIS_TYPE":0,"CLASSIFICATION_TYPE":"U","NORAD_CAT_ID":61596,"ELEMENT_SET_NO":999,"REV_AT_EPOCH":6619,"BSTAR":0.00011234266,"MEAN_MOTION_DOT":5.7e-7,"MEAN_MOTION_DDOT":0},{"OBJECT_NAME":"ONEWEB-0689","OBJECT_ID":"2024-188D","EPOCH":"2026-01-18T13:44:50.316576","MEAN_MOTION":13.11418032,"ECCENTRICITY":0.00019436,"INCLINATION":87.8826,"RA_OF_ASC_NODE":50.814,"ARG_OF_PERICENTER":105.1272,"MEAN_ANOMALY":255.0072,"EPHEMERIS_TYPE":0,"CLASSIFICATION_TYPE":"U","NORAD_CAT_ID":61597,"ELEMENT_SET_NO":999,"REV_AT_EPOCH":6484,"BSTAR":-0.0013134932,"MEAN_MOTION_DOT":-4.53e-6,"MEAN_MOTION_DDOT":0},{"OBJECT_NAME":"ONEWEB-0690","OBJECT_ID":"2024-188E","EPOCH":"2026-01-18T13:59:30.143328","MEAN_MOTION":13.11418871,"ECCENTRICITY":0.00015079,"INCLINATION":87.8832,"RA_OF_ASC_NODE":50.8318,"ARG_OF_PERICENTER":72.7638,"MEAN_ANOMALY":287.3655,"EPHEMERIS_TYPE":0,"CLASSIFICATION_TYPE":"U","NORAD_CAT_ID":61598,"ELEMENT_SET_NO":999,"REV_AT_EPOCH":6502,"BSTAR":-0.00089528792,"MEAN_MOTION_DOT":-3.05e-6,"MEAN_MOTION_DDOT":0},{"OBJECT_NAME":"ONEWEB-0691","OBJECT_ID":"2024-188F","EPOCH":"2026-01-18T13:52:10.684416","MEAN_MOTION":13.11418526,"ECCENTRICITY":0.00022616,"INCLINATION":87.8837,"RA_OF_ASC_NODE":50.7303,"ARG_OF_PERICENTER":93.5444,"MEAN_ANOMALY":266.5943,"EPHEMERIS_TYPE":0,"CLASSIFICATION_TYPE":"U","NORAD_CAT_ID":61599,"ELEMENT_SET_NO":999,"REV_AT_EPOCH":6487,"BSTAR":-0.001403547,"MEAN_MOTION_DOT":-4.85e-6,"MEAN_MOTION_DDOT":0},{"OBJECT_NAME":"ONEWEB-0692","OBJECT_ID":"2024-188G","EPOCH":"2026-01-18T14:21:28.591776","MEAN_MOTION":13.1141876,"ECCENTRICITY":0.00013606,"INCLINATION":87.8818,"RA_OF_ASC_NODE":50.8684,"ARG_OF_PERICENTER":125.2423,"MEAN_ANOMALY":234.8832,"EPHEMERIS_TYPE":0,"CLASSIFICATION_TYPE":"U","NORAD_CAT_ID":61600,"ELEMENT_SET_NO":999,"REV_AT_EPOCH":6486,"BSTAR":0.00078436807,"MEAN_MOTION_DOT":2.91e-6,"MEAN_MOTION_DDOT":0},{"OBJECT_NAME":"ONEWEB-0693","OBJECT_ID":"2024-188H","EPOCH":"2026-01-18T12:36:12.883104","MEAN_MOTION":13.17647704,"ECCENTRICITY":0.00018277,"INCLINATION":87.9073,"RA_OF_ASC_NODE":35.6572,"ARG_OF_PERICENTER":65.3616,"MEAN_ANOMALY":294.7706,"EPHEMERIS_TYPE":0,"CLASSIFICATION_TYPE":"U","NORAD_CAT_ID":61601,"ELEMENT_SET_NO":999,"REV_AT_EPOCH":6617,"BSTAR":2.6650789e-5,"MEAN_MOTION_DOT":2.3e-7,"MEAN_MOTION_DDOT":0},{"OBJECT_NAME":"ONEWEB-0695","OBJECT_ID":"2024-188J","EPOCH":"2026-01-18T08:17:41.161920","MEAN_MOTION":13.11417693,"ECCENTRICITY":0.00017996,"INCLINATION":87.8818,"RA_OF_ASC_NODE":50.9085,"ARG_OF_PERICENTER":113.7301,"MEAN_ANOMALY":246.4016,"EPHEMERIS_TYPE":0,"CLASSIFICATION_TYPE":"U","NORAD_CAT_ID":61602,"ELEMENT_SET_NO":999,"REV_AT_EPOCH":6482,"BSTAR":-0.0014790482,"MEAN_MOTION_DOT":-5.11e-6,"MEAN_MOTION_DDOT":0},{"OBJECT_NAME":"ONEWEB-0697","OBJECT_ID":"2024-188K","EPOCH":"2026-01-18T12:43:49.399968","MEAN_MOTION":13.1141812,"ECCENTRICITY":0.00013086,"INCLINATION":87.8817,"RA_OF_ASC_NODE":50.8614,"ARG_OF_PERICENTER":120.3422,"MEAN_ANOMALY":239.7836,"EPHEMERIS_TYPE":0,"CLASSIFICATION_TYPE":"U","NORAD_CAT_ID":61603,"ELEMENT_SET_NO":999,"REV_AT_EPOCH":6483,"BSTAR":0.0016644457,"MEAN_MOTION_DOT":6.03e-6,"MEAN_MOTION_DDOT":0},{"OBJECT_NAME":"ONEWEB-0698","OBJECT_ID":"2024-188L","EPOCH":"2026-01-18T14:01:56.789184","MEAN_MOTION":13.11420033,"ECCENTRICITY":5.981e-5,"INCLINATION":87.8819,"RA_OF_ASC_NODE":50.866,"ARG_OF_PERICENTER":86.8646,"MEAN_ANOMALY":273.2551,"EPHEMERIS_TYPE":0,"CLASSIFICATION_TYPE":"U","NORAD_CAT_ID":61604,"ELEMENT_SET_NO":999,"REV_AT_EPOCH":6486,"BSTAR":-0.00076895577,"MEAN_MOTION_DOT":-2.6e-6,"MEAN_MOTION_DDOT":0},{"OBJECT_NAME":"ONEWEB-0699","OBJECT_ID":"2024-188M","EPOCH":"2026-01-18T15:08:52.975680","MEAN_MOTION":13.10376243,"ECCENTRICITY":0.00012971,"INCLINATION":87.878,"RA_OF_ASC_NODE":66.073,"ARG_OF_PERICENTER":116.5472,"MEAN_ANOMALY":243.5788,"EPHEMERIS_TYPE":0,"CLASSIFICATION_TYPE":"U","NORAD_CAT_ID":61605,"ELEMENT_SET_NO":999,"REV_AT_EPOCH":6372,"BSTAR":-0.00031033311,"MEAN_MOTION_DOT":-9.6e-7,"MEAN_MOTION_DDOT":0},{"OBJECT_NAME":"ONEWEB-0700","OBJECT_ID":"2024-188N","EPOCH":"2026-01-18T15:11:16.594080","MEAN_MOTION":13.10376812,"ECCENTRICITY":0.00019211,"INCLINATION":87.8792,"RA_OF_ASC_NODE":65.9615,"ARG_OF_PERICENTER":121.2268,"MEAN_ANOMALY":238.9048,"EPHEMERIS_TYPE":0,"CLASSIFICATION_TYPE":"U","NORAD_CAT_ID":61606,"ELEMENT_SET_NO":999,"REV_AT_EPOCH":6371,"BSTAR":-4.119076e-6,"MEAN_MOTION_DOT":1.1e-7,"MEAN_MOTION_DDOT":0}]
